start=new Date('2021-12-06T00:00:00.000Z').valueOf();
sats=[{"TIME_SYSTEM":"UTC","TLE_LINE1":"1 47353U 21005E   21339.78225207  .00000590  00000-0  58518-4 0  9996","SEMIMAJOR_AXIS":"6925.379","OBJECT_NAME":"STARLINK-2045","ARG_OF_PERICENTER":"87.7440","CLASSIFICATION_TYPE":"U","BSTAR":"0.00005851800000","APOAPSIS":"548.395","PERIAPSIS":"546.094","RCS_SIZE":"LARGE","OBJECT_ID":"2021-005E","TLE_LINE2":"2 47353  53.0547 146.8587 0001661  87.7440 272.3739 15.06389958 49450","INCLINATION":"53.0547","PERIOD":"95.593","EPHEMERIS_TYPE":"0","OBJECT_TYPE":"PAYLOAD","FILE":"3233515","RA_OF_ASC_NODE":"146.8587","MEAN_MOTION_DDOT":"0.0000000000000","COUNTRY_CODE":"US","ECCENTRICITY":"0.00016610","CENTER_NAME":"EARTH","DECAY_DATE":null,"MEAN_ELEMENT_THEORY":"SGP4","REF_FRAME":"TEME","SITE":"AFETR","EPOCH":"2021-12-05T18:46:26.578848","NORAD_CAT_ID":"47353","REV_AT_EPOCH":"4945","GP_ID":"191171509","LAUNCH_DATE":"2021-01-20","MEAN_MOTION_DOT":"0.00000590","ELEMENT_SET_NO":"999","MEAN_ANOMALY":"272.3739","MEAN_MOTION":"15.06389958"},{"DECAY_DATE":null,"CENTER_NAME":"EARTH","COUNTRY_CODE":"US","ECCENTRICITY":"0.00020510","EPOCH":"2021-12-05T19:05:01.556160","SITE":"AFETR","MEAN_ELEMENT_THEORY":"SGP4","REF_FRAME":"TEME","GP_ID":"191170257","REV_AT_EPOCH":"4917","NORAD_CAT_ID":"47354","MEAN_MOTION":"15.06385886","MEAN_ANOMALY":"277.0453","MEAN_MOTION_DOT":"0.00000501","ELEMENT_SET_NO":"999","LAUNCH_DATE":"2021-01-20","SEMIMAJOR_AXIS":"6925.392","TLE_LINE1":"1 47354U 21005F   21339.79515690  .00000501  00000-0  52592-4 0  9994","TIME_SYSTEM":"UTC","PERIAPSIS":"545.836","APOAPSIS":"548.677","BSTAR":"0.00005259200000","CLASSIFICATION_TYPE":"U","ARG_OF_PERICENTER":"83.0770","OBJECT_NAME":"STARLINK-2046","PERIOD":"95.593","INCLINATION":"53.0546","OBJECT_ID":"2021-005F","TLE_LINE2":"2 47354  53.0546 166.8210 0002051  83.0770 277.0453 15.06385886 49174","RCS_SIZE":"LARGE","MEAN_MOTION_DDOT":"0.0000000000000","RA_OF_ASC_NODE":"166.8210","FILE":"3233515","OBJECT_TYPE":"PAYLOAD","EPHEMERIS_TYPE":"0"},{"RCS_SIZE":"LARGE","PERIOD":"95.593","INCLINATION":"53.0530","TLE_LINE2":"2 47355  53.0530 152.1641 0002006  71.4489 288.6717 15.06383136 49371","OBJECT_ID":"2021-005G","OBJECT_TYPE":"PAYLOAD","EPHEMERIS_TYPE":"0","MEAN_MOTION_DDOT":"0.0000000000000","RA_OF_ASC_NODE":"152.1641","FILE":"3233515","TLE_LINE1":"1 47355U 21005G   21339.75046667  .00000540  00000-0  55195-4 0  9999","TIME_SYSTEM":"UTC","SEMIMAJOR_AXIS":"6925.400","OBJECT_NAME":"STARLINK-2047","APOAPSIS":"548.654","PERIAPSIS":"545.876","BSTAR":"0.00005519500000","CLASSIFICATION_TYPE":"U","ARG_OF_PERICENTER":"71.4489","NORAD_CAT_ID":"47355","GP_ID":"191170007","REV_AT_EPOCH":"4937","ELEMENT_SET_NO":"999","MEAN_MOTION_DOT":"0.00000540","LAUNCH_DATE":"2021-01-20","MEAN_MOTION":"15.06383136","MEAN_ANOMALY":"288.6717","COUNTRY_CODE":"US","ECCENTRICITY":"0.00020060","DECAY_DATE":null,"CENTER_NAME":"EARTH","SITE":"AFETR","REF_FRAME":"TEME","MEAN_ELEMENT_THEORY":"SGP4","EPOCH":"2021-12-05T18:00:40.320288"},{"MEAN_ELEMENT_THEORY":"SGP4","REF_FRAME":"TEME","SITE":"AFETR","EPOCH":"2021-12-05T19:07:01.172640","COUNTRY_CODE":"US","ECCENTRICITY":"0.00021940","CENTER_NAME":"EARTH","DECAY_DATE":null,"LAUNCH_DATE":"2021-01-20","ELEMENT_SET_NO":"999","MEAN_MOTION_DOT":"0.00000329","MEAN_ANOMALY":"275.2828","MEAN_MOTION":"15.06384437","NORAD_CAT_ID":"47356","REV_AT_EPOCH":"4910","GP_ID":"191171259","OBJECT_NAME":"STARLINK-2049","CLASSIFICATION_TYPE":"U","ARG_OF_PERICENTER":"84.8411","BSTAR":"0.00004102900000","PERIAPSIS":"545.742","APOAPSIS":"548.781","TIME_SYSTEM":"UTC","TLE_LINE1":"1 47356U 21005H   21339.79654135  .00000329  00000-0  41029-4 0  9995","SEMIMAJOR_AXIS":"6925.396","EPHEMERIS_TYPE":"0","OBJECT_TYPE":"PAYLOAD","FILE":"3233515","RA_OF_ASC_NODE":"171.8119","MEAN_MOTION_DDOT":"0.0000000000000","RCS_SIZE":"LARGE","OBJECT_ID":"2021-005H","TLE_LINE2":"2 47356  53.0544 171.8119 0002194  84.8411 275.2828 15.06384437 49107","INCLINATION":"53.0544","PERIOD":"95.593"},{"CENTER_NAME":"EARTH","DECAY_DATE":null,"ECCENTRICITY":"0.00019430","COUNTRY_CODE":"US","EPOCH":"2021-12-05T22:30:02.734560","SITE":"AFETR","REF_FRAME":"TEME","MEAN_ELEMENT_THEORY":"SGP4","GP_ID":"191171009","REV_AT_EPOCH":"4870","NORAD_CAT_ID":"47357","MEAN_ANOMALY":"281.0401","MEAN_MOTION":"15.06384251","MEAN_MOTION_DOT":"0.00000972","ELEMENT_SET_NO":"999","LAUNCH_DATE":"2021-01-20","SEMIMAJOR_AXIS":"6925.397","TIME_SYSTEM":"UTC","TLE_LINE1":"1 47357U 21005J   21339.93753165  .00000972  00000-0  84166-4 0  9998","BSTAR":"0.00008416600000","PERIAPSIS":"545.916","APOAPSIS":"548.607","CLASSIFICATION_TYPE":"U","ARG_OF_PERICENTER":"79.0806","OBJECT_NAME":"STARLINK-2050","PERIOD":"95.593","TLE_LINE2":"2 47357  53.0518 201.1795 0001943  79.0806 281.0401 15.06384251 48702","OBJECT_ID":"2021-005J","INCLINATION":"53.0518","RCS_SIZE":"LARGE","FILE":"3233515","MEAN_MOTION_DDOT":"0.0000000000000","RA_OF_ASC_NODE":"201.1795","OBJECT_TYPE":"PAYLOAD","EPHEMERIS_TYPE":"0"},{"RCS_SIZE":"LARGE","PERIOD":"95.593","INCLINATION":"53.0545","TLE_LINE2":"2 47358  53.0545 171.4558 0002266  85.1631 274.9616 15.06385535 49113","OBJECT_ID":"2021-005K","OBJECT_TYPE":"PAYLOAD","EPHEMERIS_TYPE":"0","MEAN_MOTION_DDOT":"0.0000000000000","RA_OF_ASC_NODE":"171.4558","FILE":"3233515","TLE_LINE1":"1 47358U 21005K   21339.87394683  .00000661  00000-0  63300-4 0  9990","TIME_SYSTEM":"UTC","SEMIMAJOR_AXIS":"6925.393","OBJECT_NAME":"STARLINK-2055","APOAPSIS":"548.827","PERIAPSIS":"545.689","BSTAR":"0.00006330000000","CLASSIFICATION_TYPE":"U","ARG_OF_PERICENTER":"85.1631","NORAD_CAT_ID":"47358","GP_ID":"191169757","REV_AT_EPOCH":"4911","MEAN_MOTION_DOT":"0.00000661","ELEMENT_SET_NO":"999","LAUNCH_DATE":"2021-01-20","MEAN_MOTION":"15.06385535","MEAN_ANOMALY":"274.9616","ECCENTRICITY":"0.00022660","COUNTRY_CODE":"US","DECAY_DATE":null,"CENTER_NAME":"EARTH","SITE":"AFETR","REF_FRAME":"TEME","MEAN_ELEMENT_THEORY":"SGP4","EPOCH":"2021-12-05T20:58:29.006112"},{"TIME_SYSTEM":"UTC","TLE_LINE1":"1 47359U 21005L   21339.88452857  .00001255  00000-0  10317-3 0  9999","SEMIMAJOR_AXIS":"6925.332","OBJECT_NAME":"STARLINK-2069","BSTAR":"0.00010317000000","PERIAPSIS":"545.549","APOAPSIS":"548.845","CLASSIFICATION_TYPE":"U","ARG_OF_PERICENTER":"82.9649","RCS_SIZE":"LARGE","PERIOD":"95.592","TLE_LINE2":"2 47359  53.0531 196.4133 0002379  82.9649 277.1610 15.06405400 48767","OBJECT_ID":"2021-005L","INCLINATION":"53.0531","OBJECT_TYPE":"PAYLOAD","EPHEMERIS_TYPE":"0","FILE":"3233515","MEAN_MOTION_DDOT":"0.0000000000000","RA_OF_ASC_NODE":"196.4133","ECCENTRICITY":"0.00023790","COUNTRY_CODE":"US","CENTER_NAME":"EARTH","DECAY_DATE":null,"SITE":"AFETR","REF_FRAME":"TEME","MEAN_ELEMENT_THEORY":"SGP4","EPOCH":"2021-12-05T21:13:43.268448","NORAD_CAT_ID":"47359","GP_ID":"191170508","REV_AT_EPOCH":"4876","ELEMENT_SET_NO":"999","MEAN_MOTION_DOT":"0.00001255","LAUNCH_DATE":"2021-01-20","MEAN_ANOMALY":"277.1610","MEAN_MOTION":"15.06405400"},{"NORAD_CAT_ID":"47360","GP_ID":"191170759","REV_AT_EPOCH":"4918","ELEMENT_SET_NO":"999","MEAN_MOTION_DOT":"0.00000790","LAUNCH_DATE":"2021-01-20","MEAN_MOTION":"15.06396430","MEAN_ANOMALY":"277.4593","COUNTRY_CODE":"US","ECCENTRICITY":"0.00022530","DECAY_DATE":null,"CENTER_NAME":"EARTH","SITE":"AFETR","MEAN_ELEMENT_THEORY":"SGP4","REF_FRAME":"TEME","EPOCH":"2021-12-05T19:47:29.416128","RCS_SIZE":"LARGE","PERIOD":"95.592","INCLINATION":"53.0545","TLE_LINE2":"2 47360  53.0545 166.6855 0002253  82.6651 277.4593 15.06396430 49187","OBJECT_ID":"2021-005M","OBJECT_TYPE":"PAYLOAD","EPHEMERIS_TYPE":"0","MEAN_MOTION_DDOT":"0.0000000000000","RA_OF_ASC_NODE":"166.6855","FILE":"3233515","TLE_LINE1":"1 47360U 21005M   21339.82464602  .00000790  00000-0  71938-4 0  9996","TIME_SYSTEM":"UTC","SEMIMAJOR_AXIS":"6925.359","OBJECT_NAME":"STARLINK-2070","PERIAPSIS":"545.664","APOAPSIS":"548.785","BSTAR":"0.00007193800000","ARG_OF_PERICENTER":"82.6651","CLASSIFICATION_TYPE":"U"},{"MEAN_ANOMALY":"277.0589","MEAN_MOTION":"15.06388430","LAUNCH_DATE":"2021-01-20","ELEMENT_SET_NO":"999","MEAN_MOTION_DOT":"0.00000635","REV_AT_EPOCH":"4910","GP_ID":"191171510","NORAD_CAT_ID":"47361","EPOCH":"2021-12-05T19:33:32.934528","MEAN_ELEMENT_THEORY":"SGP4","REF_FRAME":"TEME","SITE":"AFETR","CENTER_NAME":"EARTH","DECAY_DATE":null,"ECCENTRICITY":"0.00017570","COUNTRY_CODE":"US","FILE":"3233515","MEAN_MOTION_DDOT":"0.0000000000000","RA_OF_ASC_NODE":"171.7092","EPHEMERIS_TYPE":"0","OBJECT_TYPE":"PAYLOAD","TLE_LINE2":"2 47361  53.0547 171.7092 0001757  83.0600 277.0589 15.06388430 49101","OBJECT_ID":"2021-005N","INCLINATION":"53.0547","PERIOD":"95.593","RCS_SIZE":"LARGE","CLASSIFICATION_TYPE":"U","ARG_OF_PERICENTER":"83.0600","BSTAR":"0.00006153300000","APOAPSIS":"548.466","PERIAPSIS":"546.032","OBJECT_NAME":"STARLINK-2071","SEMIMAJOR_AXIS":"6925.384","TIME_SYSTEM":"UTC","TLE_LINE1":"1 47361U 21005N   21339.81496452  .00000635  00000-0  61533-4 0  9992"},{"SITE":"AFETR","MEAN_ELEMENT_THEORY":"SGP4","REF_FRAME":"TEME","EPOCH":"2021-12-05T22:14:07.071936","COUNTRY_CODE":"US","ECCENTRICITY":"0.00019920","DECAY_DATE":null,"CENTER_NAME":"EARTH","ELEMENT_SET_NO":"999","MEAN_MOTION_DOT":"-0.00000255","LAUNCH_DATE":"2021-01-20","MEAN_MOTION":"15.06384237","MEAN_ANOMALY":"283.1165","NORAD_CAT_ID":"47362","GP_ID":"191170258","REV_AT_EPOCH":"4870","OBJECT_NAME":"STARLINK-2076","PERIAPSIS":"545.882","APOAPSIS":"548.641","BSTAR":"0.00000175850000","ARG_OF_PERICENTER":"77.0046","CLASSIFICATION_TYPE":"U","TLE_LINE1":"1 47362U 21005P   21339.92647074 -.00000255  00000-0  17585-5 0  9991","TIME_SYSTEM":"UTC","SEMIMAJOR_AXIS":"6925.397","OBJECT_TYPE":"PAYLOAD","EPHEMERIS_TYPE":"0","MEAN_MOTION_DDOT":"0.0000000000000","RA_OF_ASC_NODE":"201.2281","FILE":"3233515","RCS_SIZE":"LARGE","PERIOD":"95.593","INCLINATION":"53.0535","TLE_LINE2":"2 47362  53.0535 201.2281 0001992  77.0046 283.1165 15.06384237 48700","OBJECT_ID":"2021-005P"}];
